STARLINK-31256          
1 59161U 24044K   26068.78465645  .00000333  00000+0  21629-4 0  9995
2 59161  43.0000 106.1864 0001030 276.2359  83.8375 15.27568251113613
TEVEL2-3                
1 63218U 25052J   26068.64540225  .00020365  00000+0  69446-3 0  9991
2 63218  97.3994 324.7775 0004761 105.7353 254.4413 15.30377031 54855
